0 IUS R/B(2)
1 22316U 93003D   13280.02354652 -.00000065  00000-0  10000-3 0  9569
2 22316 012.5655 022.0280 0067758 006.6792 353.4128 01.00137907 80773
0 IUS R/B(2)
1 22316U 93003D   13287.01355838 -.00000104  00000-0  10000-3 0  9577
2 22316 012.5728 021.9577 0067634 006.6226 353.4593 01.00138756 80843
0 IUS R/B(2)
1 22316U 93003D   13290.00923612 -.00000115  00000-0  10000-3 0  9584
2 22316 012.5761 021.9274 0067679 006.7244 353.3411 01.00138977 80870
0 IUS R/B(2)
1 22316U 93003D   13293.00493396 -.00000123  00000-0  10000-3 0  9598
2 22316 012.5792 021.8967 0067685 006.8377 353.2219 01.00139131 80909
